NORAD_CAT_ID,OBJECT_NAME,OBJECT_TYPE,EPOCH,MEAN_MOTION,ECCENTRICITY,INCLINATION,RA_OF_ASC_NODE,ARG_OF_PERICENTER,MEAN_ANOMALY,BSTAR,MEAN_MOTION_DOT,MEAN_MOTION_DDOT,TLE_LINE0,TLE_LINE1,TLE_LINE2,SEMIMAJOR_AXIS,PERIOD,APOGEE,PERIGEE,DECAYED
52860.0,STARLINK-4191,PAYLOAD,2022-10-17 06:00:00,15.08838356,0.0001984,53.2146,188.1752,34.6764,234.1561,-0.00034322,-5.746e-05,0.0,0 STARLINK-4191,1 52860U 22062AG  22290.25001157 -.00005746  00000-0 -34322-3 0  9990,2 52860  53.2146 188.1752 0001984  34.6764 234.1561 15.08838356 19300,6917.885,95.438,541.123,538.378,0.0
52860.0,STARLINK-4191,PAYLOAD,2022-10-17 14:00:01,15.0881667,0.0001754,53.215,186.6769,39.5416,240.901,0.0040874,0.00065325,0.0,0 STARLINK-4191,1 52860U 22062AG  22290.58334491  .00065325  00000-0  40874-2 0  9991,2 52860  53.2150 186.6769 0001754  39.5416 240.9010 15.08816670  1309,6917.9519999999975,95.439,541.03,538.6030000000002,0.0
52860.0,STARLINK-4191,PAYLOAD,2022-10-17 22:00:00,15.08877773,0.0001844,53.2161,185.1819,41.0753,250.96,-0.0027911,-0.00044481,0.0,0 STARLINK-4191,1 52860U 22062AG  22290.91667824 -.00044481  00000-0 -27911-2 0  9996,2 52860  53.2161 185.1819 0001844  41.0753 250.9600 15.08877773  1300,6917.765,95.435,540.906,538.354,0.0
52860.0,STARLINK-4191,PAYLOAD,2022-10-18 00:00:00,15.08871749,0.0001918,53.2163,184.8085,41.0641,343.879,-0.0028103,-0.00044776,0.0,0 STARLINK-4191,1 52860U 22062AG  22291.00001157 -.00044776  00000-0 -28103-2 0  9999,2 52860  53.2163 184.8085 0001918  41.0641 343.8790 15.08871749 19411,6917.783,95.436,540.975,538.322,0.0
52860.0,STARLINK-4191,PAYLOAD,2022-10-18 14:00:01,15.08799597,0.000182,53.2149,182.1876,41.4857,273.7515,0.0039752,0.00063477,0.0,0 STARLINK-4191,1 52860U 22062AG  22291.58334491  .00063477  00000-0  39752-2 0  9991,2 52860  53.2149 182.1876 0001820  41.4857 273.7515 15.08799597  1304,6918.004,95.44,541.128,538.61,0.0
52860.0,STARLINK-4191,PAYLOAD,2022-10-18 22:00:00,15.08841484,0.0001992,53.215,180.6926,39.9382,286.8625,-0.00070866,-0.0001155,0.0,0 STARLINK-4191,1 52860U 22062AG  22291.91667824 -.00011550  00000-0 -70866-3 0  9996,2 52860  53.2150 180.6926 0001992  39.9382 286.8625 15.08841484 19556,6917.876,95.437,541.119,538.363,0.0
52860.0,STARLINK-4191,PAYLOAD,2022-10-19 14:00:01,15.08803834,0.0001913,53.2149,177.6985,46.462,303.5412,0.0038674,0.0006173999999999,0.0,0 STARLINK-4191,1 52860U 22062AG  22292.58334491  .00061740  00000-0  38674-2 0  9995,2 52860  53.2149 177.6985 0001913  46.4620 303.5412 15.08803834  1308,6917.991,95.44,541.179,538.533,0.0
52860.0,STARLINK-4191,PAYLOAD,2022-10-19 22:00:00,15.08846028,0.0002075,53.2149,176.2036,44.0526,317.5245,-0.00078957,-0.00012835,0.0,0 STARLINK-4191,1 52860U 22062AG  22292.91667824 -.00012835  00000-0 -78957-3 0  9993,2 52860  53.2149 176.2036 0002075  44.0526 317.5245 15.08846028  1300,6917.861999999999,95.437,541.1619999999998,538.2919999999998,0.0
52860.0,STARLINK-4191,PAYLOAD,2022-10-20 14:00:01,15.08801512,0.0001862,53.2147,173.2095,47.0128,337.7632,0.0034199,0.00054504,0.0,0 STARLINK-4191,1 52860U 22062AG  22293.58334491  .00054504  00000-0  34199-2 0  9994,2 52860  53.2147 173.2095 0001862  47.0128 337.7632 15.08801512  1307,6917.998000000001,95.44,541.151,538.575,0.0
52860.0,STARLINK-4191,PAYLOAD,2022-10-20 22:00:00,15.08843773,0.0002051,53.2152,171.7151,44.0502,352.3056,-0.000731,-0.00011905,0.0,0 STARLINK-4191,1 52860U 22062AG  22293.91667824 -.00011905  00000-0 -73100-3 0  9996,2 52860  53.2152 171.7151 0002051  44.0502 352.3056 15.08843773  1301,6917.869000000002,95.437,541.153,538.315,0.0
52860.0,STARLINK-4191,PAYLOAD,2022-10-21 14:00:01,15.08835193,0.0001895,53.2146,168.7202,48.1303,11.4205,0.0023899999999999,0.00037949,0.0,0 STARLINK-4191,1 52860U 22062AG  22294.58334491  .00037949  00000-0  23900-2 0  9997,2 52860  53.2146 168.7202 0001895  48.1303  11.4205 15.08835193  1302,6917.895,95.438,541.071,538.4490000000002,0.0
52860.0,STARLINK-4191,PAYLOAD,2022-10-21 22:00:00,15.08851055,0.0002059,53.2142,167.2256,43.7976,27.3672,-0.0021559,-0.00034447,0.0,0 STARLINK-4191,1 52860U 22062AG  22294.91667824 -.00034447  00000-0 -21559-2 0  9993,2 52860  53.2142 167.2256 0002059  43.7976  27.3672 15.08851055 20008,6917.847,95.437,541.136,538.2869999999998,0.0
52860.0,STARLINK-4191,PAYLOAD,2022-10-22 14:00:01,15.088103,0.0001869,53.2141,164.231,45.1866,49.1734,0.0022311,0.0003537,0.0,0 STARLINK-4191,1 52860U 22062AG  22295.58334491  .00035370  00000-0  22311-2 0  9999,2 52860  53.2141 164.2310 0001869  45.1866  49.1734 15.08810300 20107,6917.971,95.439,541.129,538.543,0.0
52860.0,STARLINK-4191,PAYLOAD,2022-10-22 22:00:00,15.08836187,0.0002068,53.2141,162.7363,41.7921,64.1465,-0.00014255,-2.556e-05,0.0,0 STARLINK-4191,1 52860U 22062AG  22295.91667824 -.00002556  00000-0 -14255-3 0  9996,2 52860  53.2141 162.7363 0002068  41.7921  64.1465 15.08836187  1304,6917.892,95.438,541.188,538.326,0.0
52860.0,STARLINK-4191,PAYLOAD,2022-10-23 14:00:01,15.08850738,0.0001948,53.2142,159.7416,45.5207,83.6222,0.0015927,0.00025158,0.0,0 STARLINK-4191,1 52860U 22062AG  22296.58334491  .00025158  00000-0  15927-2 0  9998,2 52860  53.2142 159.7416 0001948  45.5207  83.6222 15.08850738  1300,6917.848000000001,95.437,541.06,538.365,0.0
52860.0,STARLINK-4191,PAYLOAD,2022-10-23 22:00:00,15.08854647,0.0002097,53.2141,158.2468,40.5569,100.2066,-0.0022384,-0.00035751,0.0,0 STARLINK-4191,1 52860U 22062AG  22296.91667824 -.00035751  00000-0 -22384-2 0  9991,2 52860  53.2141 158.2468 0002097  40.5569 100.2066 15.08854647  1307,6917.8359999999975,95.437,541.151,538.25,0.0
52860.0,STARLINK-4191,PAYLOAD,2022-10-24 06:00:00,15.08859475,0.0002043,53.2141,156.7497,38.7536,113.6067,-0.0055428,-0.00087481,0.0,0 STARLINK-4191,1 52860U 22062AG  22297.25001157 -.00087481  00000-0 -55428-2 0  9992,2 52860  53.2141 156.7497 0002043  38.7536 113.6067 15.08859475 20366,6917.821,95.436,541.099,538.273,0.0
52860.0,STARLINK-4191,PAYLOAD,2022-10-24 14:00:01,15.08785706,0.0001962,53.2144,155.2522,44.8737,119.0681,0.0018978999999999,0.00030002,0.0,0 STARLINK-4191,1 52860U 22062AG  22297.58334491  .00030002  00000-0  18979-2 0  9993,2 52860  53.2144 155.2522 0001962  44.8737 119.0681 15.08785706  1302,6918.045999999999,95.441,541.269,538.554,0.0
52860.0,STARLINK-4191,PAYLOAD,2022-10-24 22:00:00,15.08786501,0.0002141,53.2142,153.7575,40.4875,134.9992,0.0031984,0.00050908,0.0,0 STARLINK-4191,1 52860U 22062AG  22297.91667824  .00050908  00000-0  31984-2 0  9997,2 52860  53.2142 153.7575 0002141  40.4875 134.9992 15.08786501  1301,6918.044,95.441,541.39,538.428,0.0
52860.0,STARLINK-4191,PAYLOAD,2022-10-25 00:00:00,15.08783008,0.0002174,53.2143,153.3837,39.5662,228.8083,0.0049156999999999,0.00078698,0.0,0 STARLINK-4191,1 52860U 22062AG  22298.00001157  .00078698  00000-0  49157-2 0  9996,2 52860  53.2143 153.3837 0002174  39.5662 228.8083 15.08783008 20470,6918.055,95.441,541.424,538.4159999999998,0.0
52860.0,STARLINK-4191,PAYLOAD,2022-10-25 14:00:01,15.0883257,0.0001947,53.2143,150.7629,45.0114,153.6136,0.0014134,0.00022273,0.0,0 STARLINK-4191,1 52860U 22062AG  22298.58334491  .00022273  00000-0  14134-2 0  9994,2 52860  53.2143 150.7629 0001947  45.0114 153.6136 15.08832570  1305,6917.903,95.438,541.115,538.4209999999998,0.0
52860.0,STARLINK-4191,PAYLOAD,2022-10-25 22:00:01,15.08836545,0.0002157,53.2141,149.2681,40.6396,169.6479,0.00048184,7.388e-05,0.0,0 STARLINK-4191,1 52860U 22062AG  22298.91668981  .00007388  00000-0  48184-3 0  9998,2 52860  53.2141 149.2681 0002157  40.6396 169.6479 15.08836545  1304,6917.891,95.438,541.248,538.264,0.0
52860.0,STARLINK-4191,PAYLOAD,2022-10-26 14:00:01,15.08852258,0.0001958,53.2141,146.2734,46.8925,186.5337,0.0012082,0.00018999,0.0,0 STARLINK-4191,1 52860U 22062AG  22299.58334491  .00018999  00000-0  12082-2 0  9995,2 52860  53.2141 146.2734 0001958  46.8925 186.5337 15.08852258  1304,6917.843000000003,95.437,541.062,538.3530000000002,0.0
52860.0,STARLINK-4191,PAYLOAD,2022-10-26 16:00:01,15.0886918,0.000198,53.2142,145.8996,45.6832,280.705,-0.00079451,-0.00012921,0.0,0 STARLINK-4191,1 52860U 22062AG  22299.66668981 -.00012921  00000-0 -79451-3 0  9993,2 52860  53.2142 145.8996 0001980  45.6832 280.7050 15.08869180 20727,6917.791,95.436,541.026,538.286,0.0
52860.0,STARLINK-4191,PAYLOAD,2022-10-26 22:00:00,15.08849925,0.0002151999999999,53.2139,144.7786,42.0815,202.9599,0.00026891,3.995e-05,0.0,0 STARLINK-4191,1 52860U 22062AG  22299.91667824  .00003995  00000-0  26891-3 0  9995,2 52860  53.2139 144.7786 0002152  42.0815 202.9599 15.08849925  1304,6917.85,95.437,541.2040000000002,538.226,0.0
52860.0,STARLINK-4191,PAYLOAD,2022-10-27 14:00:01,15.08841406,0.0001886999999999,53.2137,141.7838,46.6448,221.6737,0.00075896,0.00011812,0.0,0 STARLINK-4191,1 52860U 22062AG  22300.58335648  .00011812  00000-0  75896-3 0  9993,2 52860  53.2137 141.7838 0001887  46.6448 221.6737 15.08841406  1301,6917.876,95.437,541.0459999999998,538.436,0.0
52860.0,STARLINK-4191,PAYLOAD,2022-10-27 22:00:00,15.08832448,0.0002104,53.2136,140.2891,41.9613,237.9001,0.0012835,0.00020194,0.0,0 STARLINK-4191,1 52860U 22062AG  22300.91667824  .00020194  00000-0  12835-2 0  9990,2 52860  53.2136 140.2891 0002104  41.9613 237.9001 15.08832448  1308,6917.903,95.438,541.224,538.313,0.0
52860.0,STARLINK-4191,PAYLOAD,2022-10-28 02:00:01,15.0884133,0.0002081,53.2132,139.5406,39.8419,65.8785,0.0012021,0.00018896,0.0,0 STARLINK-4191,1 52860U 22062AG  22301.08335648  .00018896  00000-0  12021-2 0  9998,2 52860  53.2132 139.5406 0002081  39.8419  65.8785 15.08841330 20938,6917.876,95.437,541.181,538.302,0.0
52860.0,STARLINK-4191,PAYLOAD,2022-10-28 14:00:01,15.08839626,0.0001857,53.2135,137.2944,46.319,256.8091,-0.00059042,-9.672e-05,0.0,0 STARLINK-4191,1 52860U 22062AG  22301.58335648 -.00009672  00000-0 -59042-3 0  9992,2 52860  53.2135 137.2944 0001857  46.3190 256.8091 15.08839626  1309,6917.882,95.438,541.031,538.462,0.0
